BEIDOU-2 M3-C11
1 38250U 12018A   23124.50951994 -.00000060  00000+0  00000+0 0  9999
2 38250  56.5725 342.9406 0020913 262.4883 281.0986  1.86231240 75065
